Newsgroups: comp.sources.x
Path: uunet!think.com!mips!msi!dcmartin
From: e_downey@hwking.cca.cr.rockwell.com (Elwood Downey)
Subject: v16i131: xephem - astronomical ephemeris program., Part20/24
Message-ID: <1992Mar6.135658.2999@msi.com>
Originator: dcmartin@fascet
Sender: dcmartin@msi.com (David C. Martin - Moderator)
Organization: Molecular Simulations, Inc.
References: <csx-16i112-xephem@uunet.UU.NET>
Date: Fri, 6 Mar 1992 13:56:58 GMT
Approved: dcmartin@msi.com

Submitted-by: e_downey@hwking.cca.cr.rockwell.com (Elwood Downey)
Posting-number: Volume 16, Issue 131
Archive-name: xephem/part20

# this is part.20 (part 20 of a multipart archive)
# do not concatenate these parts, unpack them in order with /bin/sh
# file ephem.db continued
#
if test ! -r _shar_seq_.tmp; then
	echo 'Please unpack part 1 first!'
	exit 1
fi
(read Scheck
 if test "$Scheck" != 20; then
	echo Please unpack part "$Scheck" next!
	exit 1
 else
	exit 0
 fi
) < _shar_seq_.tmp || exit 1
if test ! -f _shar_wnt_.tmp; then
	echo 'x - still skipping ephem.db'
else
echo 'x - continuing file ephem.db'
sed 's/^X//' << 'SHAR_EOF' >> 'ephem.db' &&
Van Gent,e,2.68581,262.76262,83.05768,2.1849867,0.30516229,0.1829405,205.42505,11/5/1990,1950.0,12.91,0.25
Van Herk,e,3.50256,236.54929,98.02548,2.2380359,0.29437674,0.2011592,340.71627,11/5/1990,1950.0,13.50,0.25
Van Houten,e,3.58081,208.29374,202.99262,3.1053210,0.18011270,0.1782279,244.91215,11/5/1990,1950.0,11.00,0.25
Vanadis,e,2.10696,114.73941,300.42977,2.6630814,0.22679183,0.2083318,90.34775,11/5/1990,1950.0,8.99,0.13
Vanderlinden,e,4.76577,49.92546,28.42771,2.2395218,0.29408382,0.1298656,239.56407,11/5/1990,1950.0,13.76,0.34
Varsavia,e,29.21583,158.13137,286.58674,2.6666201,0.22634054,0.1888618,155.71866,11/5/1990,1950.0,10.48,0.15
Vasilev,e,1.22963,37.32222,249.87667,3.1331666,0.17771695,0.1514840,258.98887,11/5/1990,1950.0,12.10,0.25
Vasilevskis,e,21.40235,203.74013,82.40835,2.4044562,0.26434968,0.2828590,222.57465,11/5/1990,1950.0,12.54,0.25
Vassar,e,21.93410,128.93002,262.96359,3.0881858,0.18161384,0.2195618,124.69821,11/5/1990,1950.0,11.02,0.15
Vaticana,e,12.91892,57.82463,197.03948,2.7871104,0.21182285,0.2213419,80.91707,11/5/1990,1950.0,7.87,0.26
Vavilov,e,3.48103,225.39190,277.47216,2.2011966,0.30179762,0.1147745,116.70833,11/5/1990,1950.0,13.57,0.25
Veeder,e,5.69413,279.60514,15.79760,2.5452918,0.24271560,0.1299157,76.31726,11/5/1990,1950.0,12.50,0.25
Vega,f,18:36:56,38:47,0.04,2000
Vehrenberg,e,3.48455,292.47137,109.50854,2.2701490,0.28815260,0.2452121,54.39623,11/5/1990,1950.0,14.40,0.25
Velez,e,5.83939,197.90058,82.01224,2.2517030,0.29170065,0.1782724,235.25968,11/5/1990,1950.0,13.90,0.25
Velimir,e,3.95276,68.77934,246.24871,2.3783349,0.26871665,0.1969180,222.54591,11/5/1990,1950.0,13.55,0.25
Vellamo,e,8.62571,345.09727,204.35324,2.3093618,0.28084462,0.0315398,271.26208,11/5/1990,1950.0,12.20,0.25
Velleda,e,2.91782,22.99527,326.63354,2.4384137,0.25884691,0.1052848,31.65474,11/5/1990,1950.0,9.31,0.25
Venetia,e,10.24693,114.57269,280.41087,2.6696849,0.22595090,0.0858370,359.72305,11/5/1990,1950.0,8.21,0.08
Venusia,e,2.09115,255.85053,177.50841,4.0075320,0.12285380,0.2133404,72.99558,11/5/1990,1950.0,9.64,0.42
Vera,e,5.18830,61.12235,327.40423,3.0872461,0.18169677,0.2067190,222.08529,11/5/1990,1950.0,7.92,0.39
Verbaandert,e,19.82802,132.90201,339.44116,2.6169912,0.23280949,0.2103488,250.21973,11/5/1990,1950.0,13.30,0.25
Verbiest,e,5.96899,322.26027,105.62271,2.2291065,0.29614735,0.1257186,173.27991,11/5/1990,1950.0,13.21,0.25
Verdi,e,1.29153,204.49957,245.07405,2.8988394,0.19969530,0.0517296,146.80747,11/5/1990,1950.0,12.00,0.25
Vergilius,e,5.32141,219.23722,173.16063,2.4175047,0.26221232,0.0583239,342.00698,11/5/1990,1950.0,13.00,0.25
Veritas,e,9.26869,177.92688,201.11999,3.1670049,0.17487630,0.1006590,182.55587,11/5/1990,1950.0,8.32,0.15
Vernadskij,e,2.46680,356.92453,347.56095,2.4288286,0.26038070,0.1775659,79.10204,11/5/1990,1950.0,13.69,0.25
Verona,e,3.10099,37.27038,324.18301,2.2121303,0.29956290,0.2191452,69.13462,11/5/1990,1950.0,13.60,0.25
Veronika,e,20.76308,203.46709,118.59045,3.1429947,0.17688402,0.2703615,52.15535,11/5/1990,1950.0,11.20,0.25
Verveer,e,13.41236,20.91808,159.30715,2.6007542,0.23499310,0.1075014,25.69608,11/5/1990,1950.0,11.80,0.25
Vesale,e,14.47919,200.64445,164.53360,2.4256116,0.26089886,0.1854134,247.97883,11/5/1990,1950.0,12.50,0.25
Veseli,e,15.32657,353.09757,341.07420,2.5345034,0.24426698,0.1639756,202.05494,11/5/1990,1950.0,12.27,0.15
Vesta,e,7.14106,103.36574,149.93617,2.3606819,0.27173643,0.0905596,152.18952,11/5/1990,1950.0,3.16,0.34
Veteraniya,e,6.19053,338.19225,3.51566,2.3868922,0.26727287,0.1496217,182.80866,11/5/1990,1950.0,12.70,0.25
Veverka,e,3.11682,143.97288,32.40827,2.4254352,0.26092732,0.1296197,117.90162,11/5/1990,1950.0,13.43,0.15
Vibeke,e,16.71220,356.76569,51.47079,3.2089399,0.17145956,0.1212151,67.65695,11/5/1990,1950.0,10.90,0.25
Vibert-Douglas,e,17.18698,353.08453,43.32180,2.7833498,0.21225229,0.1601129,159.83852,11/5/1990,1950.0,12.74,0.15
Vibilia,e,4.81368,76.11367,293.31233,2.6539649,0.22796140,0.2342085,159.10464,11/5/1990,1950.0,7.87,0.08
Vicia,e,1.53006,133.30725,176.04378,2.6437452,0.22928449,0.2958978,183.77149,11/5/1990,1950.0,11.71,0.15
Victor Jara,e,2.67976,347.23328,308.80307,2.1712008,0.30807333,0.1648379,168.73572,11/5/1990,1950.0,13.86,0.25
Victoria,e,8.37563,235.11346,68.89851,2.3350384,0.27622503,0.2192498,140.00332,11/5/1990,1950.0,7.23,0.24
Victorplatt,e,9.11114,280.36302,332.46891,3.0144310,0.18831983,0.0631206,188.40305,11/5/1990,1950.0,10.70,0.25
Vieira,e,2.45492,153.63658,177.77978,2.8724578,0.20245271,0.0699258,146.77388,11/5/1990,1950.0,12.44,0.25
Vienna,e,12.85113,227.78101,139.39873,2.6340084,0.23055701,0.2465027,197.71809,11/5/1990,1950.0,9.36,0.22
Vigdis,e,8.32858,17.35972,41.08918,2.6138556,0.23322854,0.0981780,110.40830,11/5/1990,1950.0,12.56,0.15
Vihuri,e,7.85486,318.07867,159.82117,2.4658864,0.25453322,0.0916178,243.98243,11/5/1990,1950.0,12.75,0.25
Viipuri,e,1.48132,307.12915,171.48852,2.6939308,0.22290736,0.0789330,107.23669,11/5/1990,1950.0,11.70,0.25
Vilas,e,3.24169,88.15903,184.16958,3.1482548,0.17644090,0.1420809,264.83244,11/5/1990,1950.0,11.30,0.25
Vilho,e,1.33747,20.61933,43.07505,3.1536542,0.17598796,0.1633185,324.70954,11/5/1990,1950.0,11.70,0.25
Viljev,e,5.24720,119.91499,242.46662,3.0850473,0.18189105,0.0580660,254.71217,11/5/1990,1950.0,11.10,0.25
Villigera,e,21.05496,357.23205,87.79220,2.3924581,0.26634071,0.3565210,347.90826,11/5/1990,1950.0,11.55,0.25
Vilnius,e,5.64622,152.03022,139.70683,2.2383842,0.29430805,0.1797889,272.34782,11/5/1990,1950.0,13.57,0.25
Vilyujsk,e,6.62585,356.37086,50.37780,2.2597616,0.29014169,0.1606140,177.93966,11/5/1990,1950.0,12.96,0.25
Vincentina,e,10.58130,346.55196,318.61572,3.1407448,0.17707412,0.0639796,76.00798,11/5/1990,1950.0,8.46,0.15
Vindemiatrix,f,13:2:11,10:58,2.83,2000
Vindobona,e,5.09281,350.33731,268.58441,2.9187639,0.19765400,0.1561075,315.28354,11/5/1990,1950.0,9.40,0.15
Vinifera,e,19.96631,318.02334,0.52844,2.6165303,0.23287101,0.2075543,87.36655,11/5/1990,1950.0,10.55,0.15
Vinterhansenia,e,3.33293,59.52514,355.78905,2.3728492,0.26964904,0.1047343,130.34859,11/5/1990,1950.0,11.89,0.25
Viola,e,3.31912,143.41266,303.04315,2.4746074,0.25318887,0.1429269,110.29041,11/5/1990,1950.0,12.51,0.50
Violaumayer,e,3.80755,314.10143,69.99304,2.4840676,0.25174390,0.2183758,182.79153,11/5/1990,1950.0,13.90,0.25
Violetta,e,2.49690,292.67867,194.00966,2.4422449,0.25823806,0.1018575,173.36082,11/5/1990,1950.0,12.21,0.25
Virginia,e,2.84049,173.22918,199.20640,2.6495055,0.22853716,0.2877809,303.84990,11/5/1990,1950.0,9.20,0.15
Virtanen,e,6.63997,110.35319,131.29429,2.2233302,0.29730220,0.1416687,254.65847,11/5/1990,1950.0,12.60,0.25
Virton,e,9.63020,348.54799,28.33113,3.0046770,0.18923758,0.1153228,247.81718,11/5/1990,1950.0,11.53,0.25
Virtus,e,7.08804,38.13314,211.58080,2.9844971,0.19116014,0.0629218,155.50071,11/5/1990,1950.0,8.94,0.09
Visbor,e,5.22023,248.91507,259.00361,2.2348449,0.29500746,0.0921770,151.63216,11/5/1990,1950.0,12.79,0.25
Vitja,e,14.73578,187.67911,6.72925,3.1286332,0.17810336,0.1110777,52.70398,11/5/1990,1950.0,10.42,0.15
Vittore,e,18.76804,204.71918,274.73724,3.2226038,0.17037023,0.1997311,224.30609,11/5/1990,1950.0,11.26,0.15
Viv,e,5.14978,45.74063,281.77162,2.2157454,0.29883006,0.1565310,305.90606,11/5/1990,1950.0,13.87,0.25
Vivaldi,e,2.66812,199.05892,209.96697,2.2422735,0.29354265,0.0381462,102.81548,11/5/1990,1950.0,13.00,0.25
Vivian,e,2.49399,115.29758,316.11023,3.1271884,0.17822680,0.1726912,134.47050,11/5/1990,1950.0,10.70,0.25
Vladimir,e,12.22330,163.67007,294.54704,2.7110259,0.22080230,0.0574367,120.49529,11/5/1990,1950.0,11.29,0.15
Vladisvyat,e,18.00049,32.09477,4.16058,3.2062563,0.17167486,0.1271946,91.13868,11/5/1990,1950.0,11.18,0.15
Vladvysotskij,e,15.11855,347.42896,12.00970,3.0883985,0.18159508,0.2102128,347.40729,11/5/1990,1950.0,11.21,0.15
Vltava,e,1.01148,311.56037,57.67943,2.8583417,0.20395430,0.0792674,175.93667,11/5/1990,1950.0,11.05,0.25
Vogtia,e,4.19561,35.44586,106.52824,4.0005172,0.12317707,0.1149025,141.84673,11/5/1990,1950.0,10.65,0.15
Voigt,e,10.94824,98.33724,126.56132,2.6798537,0.22466604,0.2421197,238.42533,11/5/1990,1950.0,11.40,0.25
Volga,e,11.74568,261.34038,115.78261,2.9012536,0.19944609,0.0958470,101.63392,11/5/1990,1950.0,10.29,0.15
Volgo-Don,e,3.39788,38.04180,1.98916,2.6704463,0.22585427,0.1963740,153.12384,11/5/1990,1950.0,12.43,0.15
Volkonskaya,e,6.74186,172.48764,151.97239,2.3330159,0.27658430,0.1331494,156.90936,11/5/1990,1950.0,14.40,0.25
Volkov,e,5.11095,1.56414,146.95873,2.2377215,0.29443879,0.1009015,41.52585,11/5/1990,1950.0,12.61,0.25
Volodia,e,10.48392,359.76525,234.72437,3.1527096,0.17606706,0.1033776,246.34360,11/5/1990,1950.0,12.00,0.25
Voloshina,e,2.86325,107.13950,10.28858,3.1138740,0.17937112,0.1422865,299.05911,11/5/1990,1950.0,11.00,0.25
Von Lude,e,5.07594,140.61727,287.41474,2.2419882,0.29359867,0.1265491,309.78996,11/5/1990,1950.0,13.50,0.25
